#dP2018 11 21  0  0  0.00000000      96 __u+U IGS08 FIT  IAC
## 2028 259200.00000000   900.00000000 58443 0.0000000000000
+   91   C01C02C03C04C05C06C07C08C09C10C12C13C14E01E02E03E04
+        E05E07E08E09E11E12E14E18E19E21E24E25E26E27E30E31G01
+        G02G03G04G05G06G07G08G09G10G11G12G13G14G15G16G17G19
+        G20G21G22G23G24G25G26G27G28G29G30G31G32J01J02J03J07
+        R01R02R03R04R05R07R08R09R10R11R13R14R15R16R17R18R19
+        R20R21R22R23R24R26  0  0  0  0  0  0  0  0  0  0  0
++        12 12 12 12 12  8  8  8  8  7  7  7  7  7  7  7  7
++         7  7  7  7  7  7  7  7  7  7  7  7  7  7  7  6  3
++         3  3  3  3  3  3  3  3  3  3  3  3  3  3  3  3  3
++         3  3  3  3  3  3  3  3  3  3  3  3  3 11 12 12 16
++         7  5  5  5  5  5  5  5  5  5  5  5  5  5  5  5  5
++         5  5  5  5  5  8  0  0  0  0  0  0  0  0  0  0  0
%c M  cc GPS ccc cccc cccc cccc cccc ccccc ccccc ccccc ccccc
%c cc cc ccc ccc cccc cccc cccc cccc ccccc ccccc ccccc ccccc
%f  1.2500000  1.025000000  0.00000000000  0.000000000000000
%f  0.0000000  0.000000000  0.00000000000  0.000000000000000
%i    0    0    0    0      0      0      0      0         0
%i    0    0    0    0      0      0      0      0         0
/* INFORMATION & ANALYSIS CENTER (IAC)            FINAL DATA
/* S/V CLOCKS ARE ALIGNED TO GPS & GLONASS TIME RESPECTIVELY
/* USING THE BROADCAST EPHEMERIS                            
/* PCV:IGS14_2022 OL/AL:FES2004  NONE     YN ORB:CoN CLK:CoN
*  2018 11 21 21 15  0.00000000
PC01 -32290.301034  27085.383499    589.430871    -84.066764
PC02   4371.729651  41969.637551    375.952332   -116.290263
PC03 -14895.437521  39450.864842    473.193176    -23.382048
PC04 -39570.233237  14491.340928    402.968717     -7.422026
PC05  21836.900195  36074.899786    266.656947    114.448615
PC06 -23968.225268  23454.123269 -25483.673425     73.037378
PC07 -16822.474967  37537.462294  -7933.349912   -146.101279
PC08  -6038.884506  24380.382509  34004.665924     39.356971
PC09  -5560.470369  24979.859100 -33370.139682    303.543664
PC10  -5541.028196  41038.212949   6966.940232   -257.934189
PC12  24774.869056  11524.942538   5982.434333    226.326247
PC13   6923.559001  32786.520568  25783.068065   -389.248135
PC14  22919.657492 -10184.828481 -12131.060635    711.010526
PE01 -14416.820205  18833.583539 -17700.074937   -482.903475
PE02  14411.241229 -18862.129394  17686.829338     36.093605
PE03  24938.665117 -14691.862145   6225.328979   -102.295337
PE04  -8377.747485  19287.435234 -20834.573489   -163.443965
PE05  26972.248464  -1458.485408 -12112.096358    155.503748
PE07 -13220.813360 -12582.712316  23302.274566    -79.683750
PE08   8205.197660 -19243.241426  20943.121489   6458.299032
PE09  13293.191457  12330.333154 -23400.116742   6610.861105
PE11  19988.163900  20852.506019   6445.282836   5710.378467
PE12   2461.631655  20108.296183  21583.566708   5549.593929
PE14 -25881.126436 -10903.700997 -11138.122194   6486.081063
PE18  26995.718644   -538.680620  -3400.088668   5738.848662
PE19 -25858.886773  13723.778952  -4393.820033    -10.461806
PE21 -15949.943127  -3150.192087 -24730.550223   -505.639445
PE24   8267.592733  22510.556354  17359.382213   6377.435597
PE25  15953.256686   3177.154014  24741.533605   1976.482107
PE26 -25346.471748  -9475.144215  11986.547155   5221.926494
PE27  -8004.026258 -22919.374465 -16925.736585    585.744954
PE30   4427.341614 -29263.202183    210.924124   5331.271151
PE31  -4603.217322  29226.504011   -761.137256    977.837795
PG01 -18018.284482  -6437.081254  18381.348829   -117.674436
PG02  14709.965528  22240.578867   -143.666619    -65.075333
PG03 -18109.986561   5250.410904  18638.719821    162.621552
PG04 -10415.023492 -13568.010303 -20694.292403    -59.611328
PG05   8646.716367  14706.113734 -20427.567271     -0.055020
PG06   4364.678136  23453.740816  11690.864514    329.617089
PG07 -12036.173468   9431.677414 -21444.700781     84.292411
PG08 -23939.514923  -6422.331230  -9723.686862   -122.993680
PG09 -22830.209856   8051.384335 -10984.003350    490.421091
PG10  10278.903428 -23984.974466   4430.917961    161.490390
PG11 -23263.960620  -6957.639247   9960.120451   -697.328234
PG12  16686.936640   -518.303906  20418.735724    290.351594
PG13  18089.809836  12607.219877 -14943.156320    -83.835276
PG14  -2747.682303 -15462.533012  21739.046795    -95.551349
PG15  25768.573587   2941.818590  -6861.470102   -338.990624
PG16  -5812.528313 -15654.462472 -20704.769805     -2.393648
PG17  -8211.618053  13868.621223  21492.411432    -28.497968
PG19   2612.916283  14785.691413  21604.758248   -381.440071
PG20  14303.098720 -21506.860845  -6029.405717    518.996136
PG21   8617.653095 -13631.184741 -20320.428270   -300.419249
PG22 -16210.775223  -2980.039382  21053.642054   -579.831832
PG23 -26673.795154   1543.381228  -1619.708833   -205.598275
PG24  19479.839000  10443.401671  14818.600341    -58.484640
PG25  18436.262141 -12704.201685  13910.786116   -680.218720
PG26    920.262490 -22402.776824 -14122.902189     46.077831
PG27 -16157.048159 -11871.963821 -17640.771732    -21.282810
PG28 -13146.907294  22911.152423   3721.387955    755.507506
PG29  24339.032194  -4739.584960  -9540.923065    331.337366
PG30  -4157.205149  19550.970352 -17388.550885     -8.271418
PG31  -5623.286464 -24053.561559   9176.402671     78.098402
PG32   5759.339264 -14963.947162  21198.415954   -348.383770
PJ01 -32784.147388  26524.153568   5596.627956   -264.213958
PJ02 -18341.395856  28191.319410 -20938.226008     -0.808150
PJ03 -29353.734040  25406.045262  21745.259942      1.103600
PJ07 -25373.362165  33677.782316    -11.104254    249.264674
PR01 -18856.476685  16096.581256  -5975.010317     35.319249
PR02  -3083.046750  13909.136388 -21141.673482    340.676966
PR03  13404.581666   3482.004828 -21379.026164    149.502856
PR04  22053.203222  -9351.174643  -8735.738146    284.605591
PR05  17882.628845 -16234.651947   8174.187751     15.989094
PR07 -13822.158347  -3139.511377  21242.565105    -52.085452
PR08 -21993.439884   8838.725762   9477.633135     20.354698
PR09  -2995.692005 -25063.873539  -3895.922653     39.863757
PR10  -8967.515210 -15628.028546 -18107.814931     36.164647
PR11 -10759.495976   3912.741943 -22770.587188    -47.792746
PR13   2935.145660  25150.576755   3051.457364    -17.094266
PR14   9272.155616  15504.069379  18020.259488     33.228582
PR15  10742.458586   1426.888275  23108.881539    -19.486937
PR16   5848.387659 -19825.098830  14852.955171    106.957280
PR17  21254.436357  13388.848021   4573.132690    182.048712
PR18  21775.779878   5045.385619 -12225.559856     27.407033
PR19  10502.857727  -5804.959878 -22507.967571    -61.723326
PR20  -8321.959498 -14444.750843 -19313.772142   -359.846121
PR21 -21428.037495 -13192.996076  -4071.655625    -15.763549
PR22 -20919.367089  -3703.623483  14214.917226    -64.644199
PR23  -6085.189704   8656.080345  23204.590173    192.136404
PR24   9794.920892  14551.801225  18494.151437   -174.026846
PR26  -6894.427026 -13900.432972 -20222.928153      5.659921
EOF
